QIANFAN-60              
1 62790U 25016F   25265.54046862  .00000061  00000+0  73426-4 0  9995
2 62790  88.9740 111.4858 0014193 213.7025 146.3226 13.52523563 36264
QIANFAN-61              
1 62791U 25016G   25265.56390398  .00000071  00000+0  91482-4 0  9997
2 62791  88.9808 111.5888 0013503 212.3145 147.7180 13.50971671 36287
QIANFAN-62              
1 62792U 25016H   25265.56804186  .00000073  00000+0  94966-4 0  9995
2 62792  88.9754 111.5007 0014871 213.2288 146.7931 13.50965669 36270
QIANFAN-63              
1 62793U 25016J   25265.51713280  .00000082  00000+0  11094-3 0  9995
2 62793  88.9761 111.4516 0014516 219.7366 140.2722 13.49732291 36309
QIANFAN-64              
1 62794U 25016K   25265.56068520  .00000074  00000+0  93943-4 0  9996
2 62794  88.9747 111.4328 0012777 209.2246 150.8192 13.52420970 36303
QIANFAN-65              
1 62795U 25016L   25265.55567861  .00000065  00000+0  82577-4 0  9999
2 62795  88.9744 111.4620 0012700 212.4772 147.5599 13.50969212 36288
QIANFAN-66              
1 62796U 25016M   25265.58452080  .00000063  00000+0  79023-4 0  9999
2 62796  88.9764 111.4132 0013910 208.0620 151.9783 13.50964428 36330
QIANFAN-67              
1 62797U 25016N   25265.51445412  .00000076  00000+0  99875-4 0  9995
2 62797  88.9754 111.4540 0013728 215.7541 144.2692 13.50965910 36293
QIANFAN-68              
1 62798U 25016P   25265.58037082  .00000068  00000+0  86751-4 0  9993
2 62798  88.9757 111.4892 0013945 213.1232 146.9048 13.51165728 36280
QIANFAN-69              
1 62799U 25016Q   25265.52274155  .00000071  00000+0  91412-4 0  9996
2 62799  88.9735 111.3822 0014548 215.2024 144.8167 13.50965947 36314
QIANFAN-70              
1 62800U 25016R   25265.53914120  .00000090  00000+0  12125-3 0  9997
2 62800  88.9757 111.5018 0014362 204.6658 155.3808 13.50970501 36275
QIANFAN-71              
1 62801U 25016S   25265.53510748  .00000073  00000+0  94653-4 0  9994
2 62801  88.9751 111.4867 0014381 218.9794 141.0322 13.50969606 36278
QIANFAN-72              
1 62802U 25016T   25265.54159549  .00000086  00000+0  11786-3 0  9993
2 62802  88.9741 111.5049 0017784 227.3067 132.6587 13.49485737 36262
QIANFAN-73              
1 63159U 25046A   25265.50447581  .00000203  00000+0  29656-3 0  9990
2 63159  88.9834 328.4206 0014553   7.5675 352.5693 13.50974594 36446
QIANFAN-74              
1 63160U 25046B   25265.56195925  .00000209  00000+0  30474-3 0  9996
2 63160  88.9834 328.3029 0002225 106.6823 253.4573 13.50968006 36514
QIANFAN-75              
1 63161U 25046C   25265.54973264  .00000227  00000+0  33298-3 0  9992
2 63161  88.9834 328.5366 0015730   9.9247 350.2212 13.50977929 36386
QIANFAN-76              
1 63162U 25046D   25265.54559550  .00000182  00000+0  26341-3 0  9992
2 63162  88.9834 328.5180 0013346  12.1096 348.0373 13.50972510 36395
QIANFAN-77              
1 63163U 25046E   25265.55078306  .00000459  00000+0  32490-3 0  9998
2 63163  88.9830 327.1914 0013405 342.5418  17.5296 13.96049155 37120
QIANFAN-78              
1 63164U 25046F   25265.51268513  .00000214  00000+0  31320-3 0  9996
2 63164  88.9834 328.3862 0014807  13.6594 346.4955 13.50976904 36461
QIANFAN-79              
1 63165U 25046G   25265.54133796  .00000060  00000+0  74656-4 0  9993
2 63165  88.9838 328.4876 0014402  12.1029 348.0465 13.50965784 36413
QIANFAN-80              
1 63166U 25046H   25265.55792021  .00000209  00000+0  30525-3 0  9998
2 63166  88.9834 328.1951 0013599  17.1678 342.9930 13.50966606 36573
QIANFAN-81              
1 63167U 25046J   25265.53731612  .00000232  00000+0  34097-3 0  9990
2 63167  88.9835 328.2656 0014107   4.6128 355.5150 13.50978645 36520
QIANFAN-82              
1 63168U 25046K   25265.57023434  .00000041  00000+0  44922-4 0  9998
2 63168  88.9834 328.3058 0012598  14.1061 346.0440 13.50965859 36510
QIANFAN-83              
1 63169U 25046L   25265.51735514  .00000264  00000+0  32666-3 0  9990
2 63169  88.9835 328.2469 0013465   2.7821 357.3409 13.61953092 36549
QIANFAN-84              
1 63170U 25046M   25265.52477093  .00000088  00000+0  11764-3 0  9998
2 63170  88.9835 328.4434 0015384   8.4313 351.7094 13.50979814 36430
QIANFAN-85              
1 63171U 25046N   25265.52092109  .00000224  00000+0  32789-3 0  9992
2 63171  88.9834 328.3159 0012906  12.7225 347.4250 13.50976585 36506
QIANFAN-86              
1 63172U 25046P   25265.52913714  .00000222  00000+0  32566-3 0  9998
2 63172  88.9836 328.1753 0010993  19.0292 341.1268 13.50977060 36582
QIANFAN-87              
1 63173U 25046Q   25265.50034773  .00000219  00000+0  32038-3 0  9996
2 63173  88.9832 328.2929 0011483  13.1892 346.9557 13.50972875 36517
QIANFAN-88              
1 63174U 25046R   25265.51676559  .00000018  00000+0  99361-5 0  9993
2 63174  88.9835 328.2438 0012188  20.6973 339.4669 13.50965546 36543
QIANFAN-89              
1 63175U 25046S   25265.55363145 -.00000001  00000+0 -20551-4 0  9990
2 63175  88.9834 328.4286 0016055   8.2340 351.9072 13.50967103 36440
QIANFAN-90              
1 63176U 25046T   25265.50838056  .00000216  00000+0  31623-3 0  9991
2 63176  88.9835 328.4059 0012968   8.6289 351.5083 13.50979940 36456
